STARLINK-35633          
1 66162U 25240S   26068.25716431  .00013266  00000+0  45942-3 0  9999
2 66162  53.1605  64.7039 0001484 115.4098 244.7056 15.30186772 21929
2025-313BC              
1 67298U 25313BC  26068.18968176  .00075331  00000+0  26410-2 0  9997
2 67298  97.3985 144.8110 0008478 328.9209  31.1528 15.29126358  7890
